{
  "locations": [
    {
      "house": "2900",
      "street": "5th Avenue",
      "city": "New York",
      "state": "New York",
      "zip": "10023"
    },
    {
      "house": "6700",
      "street": "5th Avenue",
      "city": "New York",
      "state": "New York",
      "zip": "10005"
    },
    {
      "house": "3200",
      "street": "Main Street",
      "city": "New York",
      "state": "New York",
      "zip": "10012"
    },
    {
      "house": "8600",
      "street": "5th Avenue",
      "city": "New York",
      "state": "New York",
      "zip": "10016"
    },
    {
      "house": "5000",
      "street": "Park Avenue",
      "city": "New York",
      "state": "New York",
      "zip": "10004"
    },
    {
      "house": "8300",
      "street": "Main Street",
      "city": "New York",
      "state": "New York",
      "zip": "10016"
    },
    {
      "house": "8500",
      "street": "Park Avenue",
      "city": "New York",
      "state": "New York",
      "zip": "10004"
    },
    {
      "house": "8600",
      "street": "Park Avenue",
      "city": "New York",
      "state": "New York",
      "zip": "10001"
    },
    {
      "house": "3200",
      "street": "Broadway",
      "city": "New York",
      "state": "New York",
      "zip": "10025"
    },
    {
      "house": "3300",
      "street": "Broadway",
      "city": "New York",
      "state": "New York",
      "zip": "10004"
    },
    {
      "house": "3000",
      "street": "Madison Avenue",
      "city": "New York",
      "state": "New York",
      "zip": "10004"
    },
    {
      "house": "9800",
      "street": "Main Street",
      "city": "New York",
      "state": "New York",
      "zip": "10004"
    },
    {
      "house": "4",
      "street": "Broadway",
      "city": "New York",
      "state": "New York",
      "zip": "10023"
    },
    {
      "house": "3000",
      "street": "Park Avenue",
      "city": "New York",
      "state": "New York",
      "zip": "10002"
    },
    {
      "house": "5300",
      "street": "Broadway",
      "city": "New York",
      "state": "New York",
      "zip": "10023"
    },
    {
      "house": "4700",
      "street": "Broadway",
      "city": "New York",
      "state": "New York",
      "zip": "10001"
    },
    {
      "house": "2700",
      "street": "Park Avenue",
      "city": "New York",
      "state": "New York",
      "zip": "10025"
    },
    {
      "house": "3000",
      "street": "Main Street",
      "city": "New York",
      "state": "New York",
      "zip": "10022"
    },
    {
      "house": "6000",
      "street": "Broadway",
      "city": "New York",
      "state": "New York",
      "zip": "10016"
    },
    {
      "house": "7900",
      "street": "Broadway",
      "city": "New York",
      "state": "New York",
      "zip": "10005"
    },
    {
      "house": "3100",
      "street": "Park Avenue",
      "city": "New York",
      "state": "New York",
      "zip": "10001"
    },
    {
      "house": "9800",
      "street": "Broadway",
      "city": "New York",
      "state": "New York",
      "zip": "10016"
    },
    {
      "house": "5700",
      "street": "5th Avenue",
      "city": "New York",
      "state": "New York",
      "zip": "10005"
    },
    {
      "house": "5000",
      "street": "5th Avenue",
      "city": "New York",
      "state": "New York",
      "zip": "10001"
    },
    {
      "house": "9500",
      "street": "Main Street",
      "city": "New York",
      "state": "New York",
      "zip": "10005"
    },
    {
      "house": "7100",
      "street": "Park Avenue",
      "city": "New York",
      "state": "New York",
      "zip": "10004"
    },
    {
      "house": "2200",
      "street": "5th Avenue",
      "city": "New York",
      "state": "New York",
      "zip": "10002"
    },
    {
      "house": "3600",
      "street": "Madison Avenue",
      "city": "New York",
      "state": "New York",
      "zip": "10004"
    },
    {
      "house": "4300",
      "street": "Main Street",
      "city": "New York",
      "state": "New York",
      "zip": "10012"
    },
    {
      "house": "3500",
      "street": "Main Street",
      "city": "New York",
      "state": "New York",
      "zip": "10016"
    },
    {
      "house": "9600",
      "street": "Park Avenue",
      "city": "New York",
      "state": "New York",
      "zip": "10016"
    },
    {
      "house": "3100",
      "street": "5th Avenue",
      "city": "New York",
      "state": "New York",
      "zip": "10005"
    },
    {
      "house": "75",
      "street": "Park Avenue",
      "city": "New York",
      "state": "New York",
      "zip": "10023"
    },
    {
      "house": "7700",
      "street": "Main Street",
      "city": "New York",
      "state": "New York",
      "zip": "10004"
    },
    {
      "house": "6700",
      "street": "Main Street",
      "city": "New York",
      "state": "New York",
      "zip": "10016"
    },
    {
      "house": "4100",
      "street": "Main Street",
      "city": "New York",
      "state": "New York",
      "zip": "10004"
    },
    {
      "house": "5300",
      "street": "Main Street",
      "city": "New York",
      "state": "New York",
      "zip": "10022"
    },
    {
      "house": "4",
      "street": "5th Avenue",
      "city": "New York",
      "state": "New York",
      "zip": "10025"
    },
    {
      "house": "3900",
      "street": "Park Avenue",
      "city": "New York",
      "state": "New York",
      "zip": "10004"
    },
    {
      "house": "7700",
      "street": "Broadway",
      "city": "New York",
      "state": "New York",
      "zip": "10016"
    },
    {
      "house": "800",
      "street": "Park Avenue",
      "city": "New York",
      "state": "New York",
      "zip": "10001"
    },
    {
      "house": "3900",
      "street": "5th Avenue",
      "city": "New York",
      "state": "New York",
      "zip": "10001"
    },
    {
      "house": "15",
      "street": "Broadway",
      "city": "New York",
      "state": "New York",
      "zip": "10023"
    },
    {
      "house": "5100",
      "street": "Main Street",
      "city": "New York",
      "state": "New York",
      "zip": "10012"
    },
    {
      "house": "5500",
      "street": "5th Avenue",
      "city": "New York",
      "state": "New York",
      "zip": "10022"
    },
    {
      "house": "4900",
      "street": "Main Street",
      "city": "New York",
      "state": "New York",
      "zip": "10012"
    },
    {
      "house": "2000",
      "street": "Main Street",
      "city": "New York",
      "state": "New York",
      "zip": "10004"
    },
    {
      "house": "8800",
      "street": "5th Avenue",
      "city": "New York",
      "state": "New York",
      "zip": "10003"
    },
    {
      "house": "8400",
      "street": "Park Avenue",
      "city": "New York",
      "state": "New York",
      "zip": "10004"
    },
    {
      "house": "9900",
      "street": "5th Avenue",
      "city": "New York",
      "state": "New York",
      "zip": "10002"
    },
    {
      "house": "10",
      "street": "Broadway",
      "city": "New York",
      "state": "New York",
      "zip": "10003"
    },
    {
      "house": "2400",
      "street": "5th Avenue",
      "city": "New York",
      "state": "New York",
      "zip": "10001"
    },
    {
      "house": "5200",
      "street": "Broadway",
      "city": "New York",
      "state": "New York",
      "zip": "10017"
    },
    {
      "house": "9900",
      "street": "Broadway",
      "city": "New York",
      "state": "New York",
      "zip": "10005"
    },
    {
      "house": "3400",
      "street": "Main Street",
      "city": "New York",
      "state": "New York",
      "zip": "10003"
    },
    {
      "house": "4900",
      "street": "Park Avenue",
      "city": "New York",
      "state": "New York",
      "zip": "10016"
    },
    {
      "house": "1800",
      "street": "Broadway",
      "city": "New York",
      "state": "New York",
      "zip": "10017"
    },
    {
      "house": "3400",
      "street": "Park Avenue",
      "city": "New York",
      "state": "New York",
      "zip": "10017"
    },
    {
      "house": "6200",
      "street": "Broadway",
      "city": "New York",
      "state": "New York",
      "zip": "10001"
    },
    {
      "house": "900",
      "street": "Madison Avenue",
      "city": "New York",
      "state": "New York",
      "zip": "10025"
    },
    {
      "house": "50",
      "street": "Park Avenue",
      "city": "New York",
      "state": "New York",
      "zip": "10023"
    },
    {
      "house": "3100",
      "street": "Main Street",
      "city": "New York",
      "state": "New York",
      "zip": "10003"
    },
    {
      "house": "3900",
      "street": "Broadway",
      "city": "New York",
      "state": "New York",
      "zip": "10016"
    },
    {
      "house": "9700",
      "street": "5th Avenue",
      "city": "New York",
      "state": "New York",
      "zip": "10016"
    },
    {
      "house": "9700",
      "street": "Broadway",
      "city": "New York",
      "state": "New York",
      "zip": "10005"
    },
    {
      "house": "1500",
      "street": "5th Avenue",
      "city": "New York",
      "state": "New York",
      "zip": "10025"
    },
    {
      "house": "1200",
      "street": "Main Street",
      "city": "New York",
      "state": "New York",
      "zip": "10016"
    },
    {
      "house": "2900",
      "street": "Park Avenue",
      "city": "New York",
      "state": "New York",
      "zip": "10016"
    },
    {
      "house": "3500",
      "street": "Madison Avenue",
      "city": "New York",
      "state": "New York",
      "zip": "10001"
    },
    {
      "house": "5200",
      "street": "Park Avenue",
      "city": "New York",
      "state": "New York",
      "zip": "10012"
    },
    {
      "house": "8200",
      "street": "Broadway",
      "city": "New York",
      "state": "New York",
      "zip": "10017"
    },
    {
      "house": "1300",
      "street": "Park Avenue",
      "city": "New York",
      "state": "New York",
      "zip": "10004"
    },
    {
      "house": "7100",
      "street": "Broadway",
      "city": "New York",
      "state": "New York",
      "zip": "10022"
    },
    {
      "house": "1200",
      "street": "Madison Avenue",
      "city": "New York",
      "state": "New York",
      "zip": "10023"
    },
    {
      "house": "4000",
      "street": "Main Street",
      "city": "New York",
      "state": "New York",
      "zip": "10002"
    },
    {
      "house": "8200",
      "street": "5th Avenue",
      "city": "New York",
      "state": "New York",
      "zip": "10005"
    },
    {
      "house": "2600",
      "street": "Park Avenue",
      "city": "New York",
      "state": "New York",
      "zip": "10016"
    },
    {
      "house": "7200",
      "street": "Park Avenue",
      "city": "New York",
      "state": "New York",
      "zip": "10017"
    },
    {
      "house": "50",
      "street": "Main Street",
      "city": "New York",
      "state": "New York",
      "zip": "10004"
    },
    {
      "house": "9300",
      "street": "Broadway",
      "city": "New York",
      "state": "New York",
      "zip": "10016"
    },
    {
      "house": "1",
      "street": "Park Avenue",
      "city": "New York",
      "state": "New York",
      "zip": "10004"
    },
    {
      "house": "8400",
      "street": "5th Avenue",
      "city": "New York",
      "state": "New York",
      "zip": "10002"
    },
    {
      "house": "400",
      "street": "5th Avenue",
      "city": "New York",
      "state": "New York",
      "zip": "10025"
    },
    {
      "house": "1300",
      "street": "Madison Avenue",
      "city": "New York",
      "state": "New York",
      "zip": "10002"
    },
    {
      "house": "8900",
      "street": "Broadway",
      "city": "New York",
      "state": "New York",
      "zip": "10005"
    },
    {
      "house": "3600",
      "street": "Main Street",
      "city": "New York",
      "state": "New York",
      "zip": "10023"
    },
    {
      "house": "3200",
      "street": "Madison Avenue",
      "city": "New York",
      "state": "New York",
      "zip": "10002"
    },
    {
      "house": "1900",
      "street": "Park Avenue",
      "city": "New York",
      "state": "New York",
      "zip": "10005"
    },
    {
      "house": "4100",
      "street": "5th Avenue",
      "city": "New York",
      "state": "New York",
      "zip": "10004"
    },
    {
      "house": "1800",
      "street": "Park Avenue",
      "city": "New York",
      "state": "New York",
      "zip": "10022"
    },
    {
      "house": "9600",
      "street": "Main Street",
      "city": "New York",
      "state": "New York",
      "zip": "10016"
    },
    {
      "house": "4800",
      "street": "Broadway",
      "city": "New York",
      "state": "New York",
      "zip": "10001"
    },
    {
      "house": "7400",
      "street": "Broadway",
      "city": "New York",
      "state": "New York",
      "zip": "10016"
    },
    {
      "house": "8000",
      "street": "Park Avenue",
      "city": "New York",
      "state": "New York",
      "zip": "10023"
    },
    {
      "house": "3",
      "street": "5th Avenue",
      "city": "New York",
      "state": "New York",
      "zip": "10012"
    },
    {
      "house": "600",
      "street": "Main Street",
      "city": "New York",
      "state": "New York",
      "zip": "10001"
    },
    {
      "house": "2400",
      "street": "Madison Avenue",
      "city": "New York",
      "state": "New York",
      "zip": "10017"
    },
    {
      "house": "100",
      "street": "5th Avenue",
      "city": "New York",
      "state": "New York",
      "zip": "10001"
    },
    {
      "house": "25",
      "street": "Broadway",
      "city": "New York",
      "state": "New York",
      "zip": "10004"
    },
    {
      "house": "3400",
      "street": "5th Avenue",
      "city": "New York",
      "state": "New York",
      "zip": "10002"
    },
    {
      "house": "2000",
      "street": "Main Street",
      "city": "New York",
      "state": "New York",
      "zip": "10023"
    },
    {
      "house": "800",
      "street": "5th Avenue",
      "city": "New York",
      "state": "New York",
      "zip": "10002"
    },
    {
      "house": "9100",
      "street": "Park Avenue",
      "city": "New York",
      "state": "New York",
      "zip": "10025"
    },
    {
      "house": "2100",
      "street": "Main Street",
      "city": "New York",
      "state": "New York",
      "zip": "10017"
    },
    {
      "house": "1400",
      "street": "Broadway",
      "city": "New York",
      "state": "New York",
      "zip": "10016"
    },
    {
      "house": "3000",
      "street": "5th Avenue",
      "city": "New York",
      "state": "New York",
      "zip": "10017"
    },
    {
      "house": "5900",
      "street": "Broadway",
      "city": "New York",
      "state": "New York",
      "zip": "10004"
    },
    {
      "house": "500",
      "street": "Park Avenue",
      "city": "New York",
      "state": "New York",
      "zip": "10004"
    },
    {
      "house": "4",
      "street": "Main Street",
      "city": "New York",
      "state": "New York",
      "zip": "10022"
    },
    {
      "house": "7400",
      "street": "Main Street",
      "city": "New York",
      "state": "New York",
      "zip": "10003"
    },
    {
      "house": "20",
      "street": "5th Avenue",
      "city": "New York",
      "state": "New York",
      "zip": "10016"
    },
    {
      "house": "9400",
      "street": "Park Avenue",
      "city": "New York",
      "state": "New York",
      "zip": "10004"
    },
    {
      "house": "1100",
      "street": "Park Avenue",
      "city": "New York",
      "state": "New York",
      "zip": "10003"
    },
    {
      "house": "1700",
      "street": "Park Avenue",
      "city": "New York",
      "state": "New York",
      "zip": "10004"
    },
    {
      "house": "5500",
      "street": "Park Avenue",
      "city": "New York",
      "state": "New York",
      "zip": "10025"
    },
    {
      "house": "6800",
      "street": "Broadway",
      "city": "New York",
      "state": "New York",
      "zip": "10002"
    },
    {
      "house": "3500",
      "street": "Broadway",
      "city": "New York",
      "state": "New York",
      "zip": "10002"
    },
    {
      "house": "2400",
      "street": "Broadway",
      "city": "New York",
      "state": "New York",
      "zip": "10012"
    },
    {
      "house": "9600",
      "street": "Broadway",
      "city": "New York",
      "state": "New York",
      "zip": "10022"
    },
    {
      "house": "5",
      "street": "5th Avenue",
      "city": "New York",
      "state": "New York",
      "zip": "10003"
    },
    {
      "house": "1700",
      "street": "Broadway",
      "city": "New York",
      "state": "New York",
      "zip": "10005"
    },
    {
      "house": "900",
      "street": "Broadway",
      "city": "New York",
      "state": "New York",
      "zip": "10005"
    },
    {
      "house": "2",
      "street": "5th Avenue",
      "city": "New York",
      "state": "New York",
      "zip": "10002"
    },
    {
      "house": "6600",
      "street": "5th Avenue",
      "city": "New York",
      "state": "New York",
      "zip": "10017"
    },
    {
      "house": "7200",
      "street": "5th Avenue",
      "city": "New York",
      "state": "New York",
      "zip": "10016"
    },
    {
      "house": "5600",
      "street": "Park Avenue",
      "city": "New York",
      "state": "New York",
      "zip": "10003"
    },
    {
      "house": "2600",
      "street": "Main Street",
      "city": "New York",
      "state": "New York",
      "zip": "10012"
    },
    {
      "house": "2000",
      "street": "5th Avenue",
      "city": "New York",
      "state": "New York",
      "zip": "10012"
    },
    {
      "house": "3600",
      "street": "Broadway",
      "city": "New York",
      "state": "New York",
      "zip": "10017"
    },
    {
      "house": "5",
      "street": "Main Street",
      "city": "New York",
      "state": "New York",
      "zip": "10016"
    },
    {
      "house": "3300",
      "street": "Madison Avenue",
      "city": "New York",
      "state": "New York",
      "zip": "10022"
    },
    {
      "house": "1600",
      "street": "Main Street",
      "city": "New York",
      "state": "New York",
      "zip": "10002"
    },
    {
      "house": "500",
      "street": "Broadway",
      "city": "New York",
      "state": "New York",
      "zip": "10022"
    },
    {
      "house": "3000",
      "street": "Main Street",
      "city": "New York",
      "state": "New York",
      "zip": "10025"
    },
    {
      "house": "7600",
      "street": "5th Avenue",
      "city": "New York",
      "state": "New York",
      "zip": "10001"
    },
    {
      "house": "8100",
      "street": "Main Street",
      "city": "New York",
      "state": "New York",
      "zip": "10017"
    },
    {
      "house": "700",
      "street": "Broadway",
      "city": "New York",
      "state": "New York",
      "zip": "10001"
    },
    {
      "house": "7200",
      "street": "Broadway",
      "city": "New York",
      "state": "New York",
      "zip": "10012"
    },
    {
      "house": "9500",
      "street": "Park Avenue",
      "city": "New York",
      "state": "New York",
      "zip": "10012"
    },
    {
      "house": "2900",
      "street": "Main Street",
      "city": "New York",
      "state": "New York",
      "zip": "10016"
    },
    {
      "house": "2500",
      "street": "Park Avenue",
      "city": "New York",
      "state": "New York",
      "zip": "10016"
    },
    {
      "house": "6300",
      "street": "5th Avenue",
      "city": "New York",
      "state": "New York",
      "zip": "10004"
    },
    {
      "house": "700",
      "street": "Main Street",
      "city": "New York",
      "state": "New York",
      "zip": "10025"
    },
    {
      "house": "500",
      "street": "Main Street",
      "city": "New York",
      "state": "New York",
      "zip": "10012"
    },
    {
      "house": "1900",
      "street": "Madison Avenue",
      "city": "New York",
      "state": "New York",
      "zip": "10025"
    },
    {
      "house": "4",
      "street": "Park Avenue",
      "city": "New York",
      "state": "New York",
      "zip": "10023"
    },
    {
      "house": "2700",
      "street": "Main Street",
      "city": "New York",
      "state": "New York",
      "zip": "10002"
    },
    {
      "house": "5300",
      "street": "Park Avenue",
      "city": "New York",
      "state": "New York",
      "zip": "10016"
    },
    {
      "house": "3500",
      "street": "5th Avenue",
      "city": "New York",
      "state": "New York",
      "zip": "10005"
    },
    {
      "house": "200",
      "street": "Madison Avenue",
      "city": "New York",
      "state": "New York",
      "zip": "10004"
    },
    {
      "house": "5000",
      "street": "Main Street",
      "city": "New York",
      "state": "New York",
      "zip": "10017"
    },
    {
      "house": "6000",
      "street": "Main Street",
      "city": "New York",
      "state": "New York",
      "zip": "10012"
    },
    {
      "house": "2500",
      "street": "5th Avenue",
      "city": "New York",
      "state": "New York",
      "zip": "10025"
    },
    {
      "house": "4200",
      "street": "Madison Avenue",
      "city": "New York",
      "state": "New York",
      "zip": "10016"
    },
    {
      "house": "1600",
      "street": "Broadway",
      "city": "New York",
      "state": "New York",
      "zip": "10012"
    },
    {
      "house": "5900",
      "street": "Park Avenue",
      "city": "New York",
      "state": "New York",
      "zip": "10004"
    },
    {
      "house": "6800",
      "street": "Park Avenue",
      "city": "New York",
      "state": "New York",
      "zip": "10016"
    },
    {
      "house": "7600",
      "street": "Park Avenue",
      "city": "New York",
      "state": "New York",
      "zip": "10016"
    },
    {
      "house": "2400",
      "street": "Main Street",
      "city": "New York",
      "state": "New York",
      "zip": "10002"
    },
    {
      "house": "8900",
      "street": "5th Avenue",
      "city": "New York",
      "state": "New York",
      "zip": "10025"
    },
    {
      "house": "4900",
      "street": "Broadway",
      "city": "New York",
      "state": "New York",
      "zip": "10025"
    },
    {
      "house": "7500",
      "street": "Broadway",
      "city": "New York",
      "state": "New York",
      "zip": "10001"
    },
    {
      "house": "1",
      "street": "Main Street",
      "city": "New York",
      "state": "New York",
      "zip": "10023"
    },
    {
      "house": "6500",
      "street": "Main Street",
      "city": "New York",
      "state": "New York",
      "zip": "10017"
    },
    {
      "house": "1000",
      "street": "Main Street",
      "city": "New York",
      "state": "New York",
      "zip": "10002"
    },
    {
      "house": "7900",
      "street": "Park Avenue",
      "city": "New York",
      "state": "New York",
      "zip": "10025"
    },
    {
      "house": "75",
      "street": "5th Avenue",
      "city": "New York",
      "state": "New York",
      "zip": "10005"
    },
    {
      "house": "2000",
      "street": "5th Avenue",
      "city": "New York",
      "state": "New York",
      "zip": "10022"
    },
    {
      "house": "2700",
      "street": "Madison Avenue",
      "city": "New York",
      "state": "New York",
      "zip": "10001"
    },
    {
      "house": "7800",
      "street": "Park Avenue",
      "city": "New York",
      "state": "New York",
      "zip": "10017"
    },
    {
      "house": "8800",
      "street": "Main Street",
      "city": "New York",
      "state": "New York",
      "zip": "10012"
    },
    {
      "house": "7300",
      "street": "Main Street",
      "city": "New York",
      "state": "New York",
      "zip": "10001"
    },
    {
      "house": "4300",
      "street": "Broadway",
      "city": "New York",
      "state": "New York",
      "zip": "10004"
    },
    {
      "house": "600",
      "street": "Broadway",
      "city": "New York",
      "state": "New York",
      "zip": "10022"
    },
    {
      "house": "9800",
      "street": "5th Avenue",
      "city": "New York",
      "state": "New York",
      "zip": "10004"
    },
    {
      "house": "3900",
      "street": "Main Street",
      "city": "New York",
      "state": "New York",
      "zip": "10001"
    },
    {
      "house": "4000",
      "street": "5th Avenue",
      "city": "New York",
      "state": "New York",
      "zip": "10005"
    },
    {
      "house": "400",
      "street": "Madison Avenue",
      "city": "New York",
      "state": "New York",
      "zip": "10012"
    },
    {
      "house": "2",
      "street": "Main Street",
      "city": "New York",
      "state": "New York",
      "zip": "10017"
    },
    {
      "house": "9500",
      "street": "5th Avenue",
      "city": "New York",
      "state": "New York",
      "zip": "10025"
    },
    {
      "house": "1400",
      "street": "Park Avenue",
      "city": "New York",
      "state": "New York",
      "zip": "10003"
    },
    {
      "house": "3700",
      "street": "Park Avenue",
      "city": "New York",
      "state": "New York",
      "zip": "10025"
    },
    {
      "house": "7500",
      "street": "Park Avenue",
      "city": "New York",
      "state": "New York",
      "zip": "10023"
    },
    {
      "house": "900",
      "street": "Main Street",
      "city": "New York",
      "state": "New York",
      "zip": "10001"
    },
    {
      "house": "5500",
      "street": "Main Street",
      "city": "New York",
      "state": "New York",
      "zip": "10002"
    },
    {
      "house": "4300",
      "street": "5th Avenue",
      "city": "New York",
      "state": "New York",
      "zip": "10023"
    },
    {
      "house": "2",
      "street": "Park Avenue",
      "city": "New York",
      "state": "New York",
      "zip": "10002"
    },
    {
      "house": "2300",
      "street": "Broadway",
      "city": "New York",
      "state": "New York",
      "zip": "10025"
    },
    {
      "house": "200",
      "street": "Broadway",
      "city": "New York",
      "state": "New York",
      "zip": "10004"
    },
    {
      "house": "7300",
      "street": "5th Avenue",
      "city": "New York",
      "state": "New York",
      "zip": "10023"
    },
    {
      "house": "2500",
      "street": "Broadway",
      "city": "New York",
      "state": "New York",
      "zip": "10003"
    },
    {
      "house": "9100",
      "street": "Broadway",
      "city": "New York",
      "state": "New York",
      "zip": "10025"
    },
    {
      "house": "7700",
      "street": "Park Avenue",
      "city": "New York",
      "state": "New York",
      "zip": "10005"
    },
    {
      "house": "8400",
      "street": "Broadway",
      "city": "New York",
      "state": "New York",
      "zip": "10005"
    },
    {
      "house": "1600",
      "street": "Main Street",
      "city": "New York",
      "state": "New York",
      "zip": "10001"
    },
    {
      "house": "4600",
      "street": "Park Avenue",
      "city": "New York",
      "state": "New York",
      "zip": "10004"
    },
    {
      "house": "3300",
      "street": "Park Avenue",
      "city": "New York",
      "state": "New York",
      "zip": "10005"
    },
    {
      "house": "20",
      "street": "Park Avenue",
      "city": "New York",
      "state": "New York",
      "zip": "10012"
    },
    {
      "house": "5600",
      "street": "5th Avenue",
      "city": "New York",
      "state": "New York",
      "zip": "10001"
    },
    {
      "house": "3800",
      "street": "Madison Avenue",
      "city": "New York",
      "state": "New York",
      "zip": "10001"
    },
    {
      "house": "8300",
      "street": "5th Avenue",
      "city": "New York",
      "state": "New York",
      "zip": "10002"
    },
    {
      "house": "1400",
      "street": "Main Street",
      "city": "New York",
      "state": "New York",
      "zip": "10012"
    },
    {
      "house": "8600",
      "street": "Broadway",
      "city": "New York",
      "state": "New York",
      "zip": "10001"
    },
    {
      "house": "3000",
      "street": "Park Avenue",
      "city": "New York",
      "state": "New York",
      "zip": "10017"
    },
    {
      "house": "6100",
      "street": "Park Avenue",
      "city": "New York",
      "state": "New York",
      "zip": "10016"
    },
    {
      "house": "4500",
      "street": "5th Avenue",
      "city": "New York",
      "state": "New York",
      "zip": "10022"
    },
    {
      "house": "4300",
      "street": "Park Avenue",
      "city": "New York",
      "state": "New York",
      "zip": "10003"
    },
    {
      "house": "1300",
      "street": "Broadway",
      "city": "New York",
      "state": "New York",
      "zip": "10022"
    },
    {
      "house": "2500",
      "street": "Broadway",
      "city": "New York",
      "state": "New York",
      "zip": "10025"
    },
    {
      "house": "8500",
      "street": "Main Street",
      "city": "New York",
      "state": "New York",
      "zip": "10022"
    },
    {
      "house": "2400",
      "street": "Park Avenue",
      "city": "New York",
      "state": "New York",
      "zip": "10025"
    },
    {
      "house": "9200",
      "street": "Park Avenue",
      "city": "New York",
      "state": "New York",
      "zip": "10001"
    },
    {
      "house": "4900",
      "street": "5th Avenue",
      "city": "New York",
      "state": "New York",
      "zip": "10023"
    },
    {
      "house": "100",
      "street": "Broadway",
      "city": "New York",
      "state": "New York",
      "zip": "10004"
    },
    {
      "house": "75",
      "street": "Main Street",
      "city": "New York",
      "state": "New York",
      "zip": "10004"
    },
    {
      "house": "800",
      "street": "Main Street",
      "city": "New York",
      "state": "New York",
      "zip": "10017"
    },
    {
      "house": "7000",
      "street": "5th Avenue",
      "city": "New York",
      "state": "New York",
      "zip": "10023"
    },
    {
      "house": "100",
      "street": "Madison Avenue",
      "city": "New York",
      "state": "New York",
      "zip": "10001"
    },
    {
      "house": "5100",
      "street": "Broadway",
      "city": "New York",
      "state": "New York",
      "zip": "10022"
    },
    {
      "house": "10",
      "street": "Main Street",
      "city": "New York",
      "state": "New York",
      "zip": "10004"
    },
    {
      "house": "6400",
      "street": "Park Avenue",
      "city": "New York",
      "state": "New York",
      "zip": "10025"
    },
    {
      "house": "6600",
      "street": "Main Street",
      "city": "New York",
      "state": "New York",
      "zip": "10016"
    },
    {
      "house": "1500",
      "street": "Park Avenue",
      "city": "New York",
      "state": "New York",
      "zip": "10001"
    },
    {
      "house": "4400",
      "street": "5th Avenue",
      "city": "New York",
      "state": "New York",
      "zip": "10025"
    },
    {
      "house": "300",
      "street": "Park Avenue",
      "city": "New York",
      "state": "New York",
      "zip": "10016"
    },
    {
      "house": "600",
      "street": "Park Avenue",
      "city": "New York",
      "state": "New York",
      "zip": "10016"
    },
    {
      "house": "2000",
      "street": "Broadway",
      "city": "New York",
      "state": "New York",
      "zip": "10005"
    },
    {
      "house": "9400",
      "street": "Main Street",
      "city": "New York",
      "state": "New York",
      "zip": "10003"
    },
    {
      "house": "1100",
      "street": "Madison Avenue",
      "city": "New York",
      "state": "New York",
      "zip": "10025"
    },
    {
      "house": "8700",
      "street": "Main Street",
      "city": "New York",
      "state": "New York",
      "zip": "10005"
    },
    {
      "house": "7800",
      "street": "Main Street",
      "city": "New York",
      "state": "New York",
      "zip": "10001"
    },
    {
      "house": "10",
      "street": "5th Avenue",
      "city": "New York",
      "state": "New York",
      "zip": "10022"
    },
    {
      "house": "3900",
      "street": "Madison Avenue",
      "city": "New York",
      "state": "New York",
      "zip": "10012"
    },
    {
      "house": "7600",
      "street": "Broadway",
      "city": "New York",
      "state": "New York",
      "zip": "10017"
    },
    {
      "house": "3100",
      "street": "Madison Avenue",
      "city": "New York",
      "state": "New York",
      "zip": "10004"
    },
    {
      "house": "1900",
      "street": "5th Avenue",
      "city": "New York",
      "state": "New York",
      "zip": "10003"
    },
    {
      "house": "15",
      "street": "Main Street",
      "city": "New York",
      "state": "New York",
      "zip": "10017"
    },
    {
      "house": "5100",
      "street": "Park Avenue",
      "city": "New York",
      "state": "New York",
      "zip": "10023"
    },
    {
      "house": "6900",
      "street": "Park Avenue",
      "city": "New York",
      "state": "New York",
      "zip": "10012"
    },
    {
      "house": "1000",
      "street": "Madison Avenue",
      "city": "New York",
      "state": "New York",
      "zip": "10022"
    },
    {
      "house": "5",
      "street": "Broadway",
      "city": "New York",
      "state": "New York",
      "zip": "10003"
    },
    {
      "house": "1500",
      "street": "Main Street",
      "city": "New York",
      "state": "New York",
      "zip": "10001"
    },
    {
      "house": "6700",
      "street": "Broadway",
      "city": "New York",
      "state": "New York",
      "zip": "10023"
    },
    {
      "house": "8600",
      "street": "Main Street",
      "city": "New York",
      "state": "New York",
      "zip": "10005"
    },
    {
      "house": "25",
      "street": "Park Avenue",
      "city": "New York",
      "state": "New York",
      "zip": "10017"
    },
    {
      "house": "500",
      "street": "5th Avenue",
      "city": "New York",
      "state": "New York",
      "zip": "10023"
    },
    {
      "house": "8200",
      "street": "Main Street",
      "city": "New York",
      "state": "New York",
      "zip": "10023"
    },
    {
      "house": "2500",
      "street": "5th Avenue",
      "city": "New York",
      "state": "New York",
      "zip": "10004"
    },
    {
      "house": "7100",
      "street": "Main Street",
      "city": "New York",
      "state": "New York",
      "zip": "10003"
    },
    {
      "house": "5200",
      "street": "5th Avenue",
      "city": "New York",
      "state": "New York",
      "zip": "10017"
    },
    {
      "house": "2800",
      "street": "Park Avenue",
      "city": "New York",
      "state": "New York",
      "zip": "10023"
    },
    {
      "house": "2100",
      "street": "5th Avenue",
      "city": "New York",
      "state": "New York",
      "zip": "10016"
    },
    {
      "house": "3300",
      "street": "Main Street",
      "city": "New York",
      "state": "New York",
      "zip": "10001"
    },
    {
      "house": "50",
      "street": "Broadway",
      "city": "New York",
      "state": "New York",
      "zip": "10002"
    },
    {
      "house": "400",
      "street": "Main Street",
      "city": "New York",
      "state": "New York",
      "zip": "10005"
    },
    {
      "house": "20",
      "street": "Main Street",
      "city": "New York",
      "state": "New York",
      "zip": "10005"
    },
    {
      "house": "300",
      "street": "Broadway",
      "city": "New York",
      "state": "New York",
      "zip": "10023"
    },
    {
      "house": "6100",
      "street": "Main Street",
      "city": "New York",
      "state": "New York",
      "zip": "10003"
    },
    {
      "house": "3200",
      "street": "5th Avenue",
      "city": "New York",
      "state": "New York",
      "zip": "10002"
    },
    {
      "house": "7200",
      "street": "Main Street",
      "city": "New York",
      "state": "New York",
      "zip": "10005"
    },
    {
      "house": "3400",
      "street": "Broadway",
      "city": "New York",
      "state": "New York",
      "zip": "10001"
    },
    {
      "house": "1600",
      "street": "5th Avenue",
      "city": "New York",
      "state": "New York",
      "zip": "10002"
    },
    {
      "house": "1000",
      "street": "Broadway",
      "city": "New York",
      "state": "New York",
      "zip": "10016"
    },
    {
      "house": "1000",
      "street": "5th Avenue",
      "city": "New York",
      "state": "New York",
      "zip": "10001"
    },
    {
      "house": "2600",
      "street": "Madison Avenue",
      "city": "New York",
      "state": "New York",
      "zip": "10016"
    },
    {
      "house": "9100",
      "street": "5th Avenue",
      "city": "New York",
      "state": "New York",
      "zip": "10004"
    },
    {
      "house": "8900",
      "street": "Main Street",
      "city": "New York",
      "state": "New York",
      "zip": "10001"
    },
    {
      "house": "800",
      "street": "Madison Avenue",
      "city": "New York",
      "state": "New York",
      "zip": "10017"
    },
    {
      "house": "5300",
      "street": "5th Avenue",
      "city": "New York",
      "state": "New York",
      "zip": "10002"
    },
    {
      "house": "5",
      "street": "Park Avenue",
      "city": "New York",
      "state": "New York",
      "zip": "10025"
    },
    {
      "house": "1100",
      "street": "Broadway",
      "city": "New York",
      "state": "New York",
      "zip": "10001"
    },
    {
      "house": "3700",
      "street": "5th Avenue",
      "city": "New York",
      "state": "New York",
      "zip": "10003"
    },
    {
      "house": "7400",
      "street": "5th Avenue",
      "city": "New York",
      "state": "New York",
      "zip": "10022"
    },
    {
      "house": "9200",
      "street": "Main Street",
      "city": "New York",
      "state": "New York",
      "zip": "10002"
    },
    {
      "house": "2700",
      "street": "Broadway",
      "city": "New York",
      "state": "New York",
      "zip": "10003"
    },
    {
      "house": "1800",
      "street": "Main Street",
      "city": "New York",
      "state": "New York",
      "zip": "10012"
    },
    {
      "house": "3",
      "street": "Main Street",
      "city": "New York",
      "state": "New York",
      "zip": "10022"
    },
    {
      "house": "7000",
      "street": "Broadway",
      "city": "New York",
      "state": "New York",
      "zip": "10001"
    },
    {
      "house": "3800",
      "street": "Park Avenue",
      "city": "New York",
      "state": "New York",
      "zip": "10004"
    },
    {
      "house": "6300",
      "street": "Main Street",
      "city": "New York",
      "state": "New York",
      "zip": "10003"
    },
    {
      "house": "4600",
      "street": "Main Street",
      "city": "New York",
      "state": "New York",
      "zip": "10022"
    },
    {
      "house": "5500",
      "street": "Broadway",
      "city": "New York",
      "state": "New York",
      "zip": "10017"
    },
    {
      "house": "4200",
      "street": "Park Avenue",
      "city": "New York",
      "state": "New York",
      "zip": "10005"
    },
    {
      "house": "50",
      "street": "5th Avenue",
      "city": "New York",
      "state": "New York",
      "zip": "10005"
    },
    {
      "house": "5000",
      "street": "Broadway",
      "city": "New York",
      "state": "New York",
      "zip": "10012"
    },
    {
      "house": "7400",
      "street": "Park Avenue",
      "city": "New York",
      "state": "New York",
      "zip": "10004"
    },
    {
      "house": "900",
      "street": "5th Avenue",
      "city": "New York",
      "state": "New York",
      "zip": "10002"
    },
    {
      "house": "2700",
      "street": "5th Avenue",
      "city": "New York",
      "state": "New York",
      "zip": "10003"
    },
    {
      "house": "9900",
      "street": "Main Street",
      "city": "New York",
      "state": "New York",
      "zip": "10023"
    },
    {
      "house": "7800",
      "street": "Broadway",
      "city": "New York",
      "state": "New York",
      "zip": "10004"
    },
    {
      "house": "7500",
      "street": "Main Street",
      "city": "New York",
      "state": "New York",
      "zip": "10004"
    },
    {
      "house": "9000",
      "street": "Main Street",
      "city": "New York",
      "state": "New York",
      "zip": "10023"
    },
    {
      "house": "4200",
      "street": "5th Avenue",
      "city": "New York",
      "state": "New York",
      "zip": "10016"
    },
    {
      "house": "7300",
      "street": "Park Avenue",
      "city": "New York",
      "state": "New York",
      "zip": "10002"
    },
    {
      "house": "5700",
      "street": "Main Street",
      "city": "New York",
      "state": "New York",
      "zip": "10017"
    },
    {
      "house": "2200",
      "street": "Park Avenue",
      "city": "New York",
      "state": "New York",
      "zip": "10012"
    },
    {
      "house": "2200",
      "street": "Broadway",
      "city": "New York",
      "state": "New York",
      "zip": "10023"
    },
    {
      "house": "4500",
      "street": "Park Avenue",
      "city": "New York",
      "state": "New York",
      "zip": "10023"
    },
    {
      "house": "4800",
      "street": "5th Avenue",
      "city": "New York",
      "state": "New York",
      "zip": "10005"
    },
    {
      "house": "1600",
      "street": "Broadway",
      "city": "New York",
      "state": "New York",
      "zip": "10002"
    },
    {
      "house": "2300",
      "street": "5th Avenue",
      "city": "New York",
      "state": "New York",
      "zip": "10025"
    },
    {
      "house": "2200",
      "street": "Main Street",
      "city": "New York",
      "state": "New York",
      "zip": "10004"
    },
    {
      "house": "1200",
      "street": "Broadway",
      "city": "New York",
      "state": "New York",
      "zip": "10004"
    },
    {
      "house": "2500",
      "street": "Madison Avenue",
      "city": "New York",
      "state": "New York",
      "zip": "10004"
    },
    {
      "house": "1300",
      "street": "Main Street",
      "city": "New York",
      "state": "New York",
      "zip": "10023"
    },
    {
      "house": "1800",
      "street": "5th Avenue",
      "city": "New York",
      "state": "New York",
      "zip": "10004"
    },
    {
      "house": "6900",
      "street": "5th Avenue",
      "city": "New York",
      "state": "New York",
      "zip": "10004"
    },
    {
      "house": "4700",
      "street": "Park Avenue",
      "city": "New York",
      "state": "New York",
      "zip": "10003"
    },
    {
      "house": "400",
      "street": "Broadway",
      "city": "New York",
      "state": "New York",
      "zip": "10004"
    },
    {
      "house": "4100",
      "street": "Madison Avenue",
      "city": "New York",
      "state": "New York",
      "zip": "10022"
    },
    {
      "house": "300",
      "street": "Madison Avenue",
      "city": "New York",
      "state": "New York",
      "zip": "10016"
    },
    {
      "house": "1",
      "street": "5th Avenue",
      "city": "New York",
      "state": "New York",
      "zip": "10022"
    },
    {
      "house": "8300",
      "street": "Broadway",
      "city": "New York",
      "state": "New York",
      "zip": "10023"
    },
    {
      "house": "4700",
      "street": "5th Avenue",
      "city": "New York",
      "state": "New York",
      "zip": "10017"
    },
    {
      "house": "6700",
      "street": "Park Avenue",
      "city": "New York",
      "state": "New York",
      "zip": "10023"
    },
    {
      "house": "1600",
      "street": "5th Avenue",
      "city": "New York",
      "state": "New York",
      "zip": "10017"
    },
    {
      "house": "4000",
      "street": "Madison Avenue",
      "city": "New York",
      "state": "New York",
      "zip": "10025"
    },
    {
      "house": "6600",
      "street": "Broadway",
      "city": "New York",
      "state": "New York",
      "zip": "10005"
    },
    {
      "house": "5900",
      "street": "5th Avenue",
      "city": "New York",
      "state": "New York",
      "zip": "10025"
    },
    {
      "house": "1700",
      "street": "Madison Avenue",
      "city": "New York",
      "state": "New York",
      "zip": "10023"
    },
    {
      "house": "700",
      "street": "Madison Avenue",
      "city": "New York",
      "state": "New York",
      "zip": "10025"
    },
    {
      "house": "9300",
      "street": "Park Avenue",
      "city": "New York",
      "state": "New York",
      "zip": "10001"
    },
    {
      "house": "1100",
      "street": "5th Avenue",
      "city": "New York",
      "state": "New York",
      "zip": "10012"
    },
    {
      "house": "2100",
      "street": "Park Avenue",
      "city": "New York",
      "state": "New York",
      "zip": "10005"
    },
    {
      "house": "6100",
      "street": "Broadway",
      "city": "New York",
      "state": "New York",
      "zip": "10022"
    },
    {
      "house": "8100",
      "street": "Park Avenue",
      "city": "New York",
      "state": "New York",
      "zip": "10022"
    },
    {
      "house": "2800",
      "street": "Main Street",
      "city": "New York",
      "state": "New York",
      "zip": "10001"
    },
    {
      "house": "1600",
      "street": "Madison Avenue",
      "city": "New York",
      "state": "New York",
      "zip": "10023"
    },
    {
      "house": "5400",
      "street": "Main Street",
      "city": "New York",
      "state": "New York",
      "zip": "10017"
    },
    {
      "house": "6100",
      "street": "5th Avenue",
      "city": "New York",
      "state": "New York",
      "zip": "10003"
    },
    {
      "house": "5700",
      "street": "Broadway",
      "city": "New York",
      "state": "New York",
      "zip": "10016"
    },
    {
      "house": "3400",
      "street": "Madison Avenue",
      "city": "New York",
      "state": "New York",
      "zip": "10004"
    },
    {
      "house": "9000",
      "street": "5th Avenue",
      "city": "New York",
      "state": "New York",
      "zip": "10025"
    },
    {
      "house": "3700",
      "street": "Madison Avenue",
      "city": "New York",
      "state": "New York",
      "zip": "10005"
    },
    {
      "house": "4700",
      "street": "Main Street",
      "city": "New York",
      "state": "New York",
      "zip": "10005"
    },
    {
      "house": "9300",
      "street": "5th Avenue",
      "city": "New York",
      "state": "New York",
      "zip": "10004"
    },
    {
      "house": "6500",
      "street": "Broadway",
      "city": "New York",
      "state": "New York",
      "zip": "10023"
    },
    {
      "house": "8800",
      "street": "Broadway",
      "city": "New York",
      "state": "New York",
      "zip": "10005"
    },
    {
      "house": "5800",
      "street": "Main Street",
      "city": "New York",
      "state": "New York",
      "zip": "10017"
    },
    {
      "house": "5600",
      "street": "Main Street",
      "city": "New York",
      "state": "New York",
      "zip": "10016"
    },
    {
      "house": "4600",
      "street": "5th Avenue",
      "city": "New York",
      "state": "New York",
      "zip": "10001"
    },
    {
      "house": "4100",
      "street": "Broadway",
      "city": "New York",
      "state": "New York",
      "zip": "10025"
    },
    {
      "house": "2300",
      "street": "Park Avenue",
      "city": "New York",
      "state": "New York",
      "zip": "10005"
    },
    {
      "house": "25",
      "street": "5th Avenue",
      "city": "New York",
      "state": "New York",
      "zip": "10025"
    },
    {
      "house": "25",
      "street": "Main Street",
      "city": "New York",
      "state": "New York",
      "zip": "10016"
    },
    {
      "house": "6600",
      "street": "Park Avenue",
      "city": "New York",
      "state": "New York",
      "zip": "10016"
    },
    {
      "house": "15",
      "street": "5th Avenue",
      "city": "New York",
      "state": "New York",
      "zip": "10002"
    },
    {
      "house": "7000",
      "street": "Park Avenue",
      "city": "New York",
      "state": "New York",
      "zip": "10023"
    },
    {
      "house": "5400",
      "street": "Park Avenue",
      "city": "New York",
      "state": "New York",
      "zip": "10002"
    },
    {
      "house": "4800",
      "street": "Park Avenue",
      "city": "New York",
      "state": "New York",
      "zip": "10001"
    },
    {
      "house": "75",
      "street": "Broadway",
      "city": "New York",
      "state": "New York",
      "zip": "10001"
    },
    {
      "house": "4100",
      "street": "Park Avenue",
      "city": "New York",
      "state": "New York",
      "zip": "10004"
    },
    {
      "house": "9100",
      "street": "Main Street",
      "city": "New York",
      "state": "New York",
      "zip": "10017"
    },
    {
      "house": "1900",
      "street": "Main Street",
      "city": "New York",
      "state": "New York",
      "zip": "10005"
    },
    {
      "house": "200",
      "street": "5th Avenue",
      "city": "New York",
      "state": "New York",
      "zip": "10016"
    },
    {
      "house": "4400",
      "street": "Park Avenue",
      "city": "New York",
      "state": "New York",
      "zip": "10012"
    },
    {
      "house": "6300",
      "street": "Broadway",
      "city": "New York",
      "state": "New York",
      "zip": "10022"
    },
    {
      "house": "5800",
      "street": "5th Avenue",
      "city": "New York",
      "state": "New York",
      "zip": "10005"
    },
    {
      "house": "1400",
      "street": "5th Avenue",
      "city": "New York",
      "state": "New York",
      "zip": "10004"
    },
    {
      "house": "9500",
      "street": "Broadway",
      "city": "New York",
      "state": "New York",
      "zip": "10003"
    },
    {
      "house": "2000",
      "street": "Broadway",
      "city": "New York",
      "state": "New York",
      "zip": "10012"
    },
    {
      "house": "1700",
      "street": "5th Avenue",
      "city": "New York",
      "state": "New York",
      "zip": "10016"
    },
    {
      "house": "2500",
      "street": "Main Street",
      "city": "New York",
      "state": "New York",
      "zip": "10004"
    },
    {
      "house": "2100",
      "street": "Madison Avenue",
      "city": "New York",
      "state": "New York",
      "zip": "10017"
    },
    {
      "house": "6900",
      "street": "Main Street",
      "city": "New York",
      "state": "New York",
      "zip": "10017"
    },
    {
      "house": "2800",
      "street": "Madison Avenue",
      "city": "New York",
      "state": "New York",
      "zip": "10003"
    },
    {
      "house": "3000",
      "street": "Broadway",
      "city": "New York",
      "state": "New York",
      "zip": "10012"
    },
    {
      "house": "9600",
      "street": "5th Avenue",
      "city": "New York",
      "state": "New York",
      "zip": "10012"
    },
    {
      "house": "8700",
      "street": "Broadway",
      "city": "New York",
      "state": "New York",
      "zip": "10004"
    },
    {
      "house": "9900",
      "street": "Park Avenue",
      "city": "New York",
      "state": "New York",
      "zip": "10001"
    },
    {
      "house": "6200",
      "street": "5th Avenue",
      "city": "New York",
      "state": "New York",
      "zip": "10012"
    },
    {
      "house": "9400",
      "street": "Broadway",
      "city": "New York",
      "state": "New York",
      "zip": "10016"
    },
    {
      "house": "6300",
      "street": "Park Avenue",
      "city": "New York",
      "state": "New York",
      "zip": "10002"
    },
    {
      "house": "2000",
      "street": "Park Avenue",
      "city": "New York",
      "state": "New York",
      "zip": "10002"
    },
    {
      "house": "15",
      "street": "Park Avenue",
      "city": "New York",
      "state": "New York",
      "zip": "10002"
    },
    {
      "house": "3100",
      "street": "Broadway",
      "city": "New York",
      "state": "New York",
      "zip": "10004"
    },
    {
      "house": "6900",
      "street": "Broadway",
      "city": "New York",
      "state": "New York",
      "zip": "10025"
    },
    {
      "house": "8500",
      "street": "Broadway",
      "city": "New York",
      "state": "New York",
      "zip": "10023"
    },
    {
      "house": "1200",
      "street": "Park Avenue",
      "city": "New York",
      "state": "New York",
      "zip": "10004"
    },
    {
      "house": "200",
      "street": "Park Avenue",
      "city": "New York",
      "state": "New York",
      "zip": "10002"
    },
    {
      "house": "1000",
      "street": "Park Avenue",
      "city": "New York",
      "state": "New York",
      "zip": "10004"
    },
    {
      "house": "3800",
      "street": "Main Street",
      "city": "New York",
      "state": "New York",
      "zip": "10017"
    },
    {
      "house": "700",
      "street": "5th Avenue",
      "city": "New York",
      "state": "New York",
      "zip": "10005"
    },
    {
      "house": "2500",
      "street": "Park Avenue",
      "city": "New York",
      "state": "New York",
      "zip": "10016"
    },
    {
      "house": "5400",
      "street": "5th Avenue",
      "city": "New York",
      "state": "New York",
      "zip": "10001"
    },
    {
      "house": "8000",
      "street": "5th Avenue",
      "city": "New York",
      "state": "New York",
      "zip": "10023"
    },
    {
      "house": "9000",
      "street": "Park Avenue",
      "city": "New York",
      "state": "New York",
      "zip": "10017"
    },
    {
      "house": "7000",
      "street": "Main Street",
      "city": "New York",
      "state": "New York",
      "zip": "10023"
    },
    {
      "house": "7900",
      "street": "Main Street",
      "city": "New York",
      "state": "New York",
      "zip": "10001"
    },
    {
      "house": "20",
      "street": "Broadway",
      "city": "New York",
      "state": "New York",
      "zip": "10002"
    },
    {
      "house": "500",
      "street": "Madison Avenue",
      "city": "New York",
      "state": "New York",
      "zip": "10001"
    },
    {
      "house": "6500",
      "street": "5th Avenue",
      "city": "New York",
      "state": "New York",
      "zip": "10003"
    },
    {
      "house": "5700",
      "street": "Park Avenue",
      "city": "New York",
      "state": "New York",
      "zip": "10002"
    },
    {
      "house": "6800",
      "street": "Main Street",
      "city": "New York",
      "state": "New York",
      "zip": "10016"
    },
    {
      "house": "2600",
      "street": "5th Avenue",
      "city": "New York",
      "state": "New York",
      "zip": "10004"
    },
    {
      "house": "3800",
      "street": "Broadway",
      "city": "New York",
      "state": "New York",
      "zip": "10012"
    },
    {
      "house": "8000",
      "street": "Broadway",
      "city": "New York",
      "state": "New York",
      "zip": "10022"
    },
    {
      "house": "1700",
      "street": "Main Street",
      "city": "New York",
      "state": "New York",
      "zip": "10001"
    },
    {
      "house": "3200",
      "street": "Park Avenue",
      "city": "New York",
      "state": "New York",
      "zip": "10012"
    },
    {
      "house": "8200",
      "street": "Park Avenue",
      "city": "New York",
      "state": "New York",
      "zip": "10001"
    },
    {
      "house": "8100",
      "street": "Broadway",
      "city": "New York",
      "state": "New York",
      "zip": "10002"
    },
    {
      "house": "6400",
      "street": "5th Avenue",
      "city": "New York",
      "state": "New York",
      "zip": "10017"
    },
    {
      "house": "9200",
      "street": "Broadway",
      "city": "New York",
      "state": "New York",
      "zip": "10003"
    },
    {
      "house": "9400",
      "street": "5th Avenue",
      "city": "New York",
      "state": "New York",
      "zip": "10002"
    },
    {
      "house": "2600",
      "street": "Broadway",
      "city": "New York",
      "state": "New York",
      "zip": "10025"
    },
    {
      "house": "4200",
      "street": "Main Street",
      "city": "New York",
      "state": "New York",
      "zip": "10025"
    },
    {
      "house": "4500",
      "street": "Main Street",
      "city": "New York",
      "state": "New York",
      "zip": "10003"
    },
    {
      "house": "1600",
      "street": "Park Avenue",
      "city": "New York",
      "state": "New York",
      "zip": "10003"
    },
    {
      "house": "2800",
      "street": "Broadway",
      "city": "New York",
      "state": "New York",
      "zip": "10004"
    },
    {
      "house": "2200",
      "street": "Madison Avenue",
      "city": "New York",
      "state": "New York",
      "zip": "10004"
    },
    {
      "house": "1800",
      "street": "Madison Avenue",
      "city": "New York",
      "state": "New York",
      "zip": "10001"
    },
    {
      "house": "1",
      "street": "Broadway",
      "city": "New York",
      "state": "New York",
      "zip": "10016"
    },
    {
      "house": "6200",
      "street": "Main Street",
      "city": "New York",
      "state": "New York",
      "zip": "10005"
    },
    {
      "house": "6500",
      "street": "Park Avenue",
      "city": "New York",
      "state": "New York",
      "zip": "10012"
    },
    {
      "house": "100",
      "street": "Park Avenue",
      "city": "New York",
      "state": "New York",
      "zip": "10001"
    },
    {
      "house": "800",
      "street": "Broadway",
      "city": "New York",
      "state": "New York",
      "zip": "10016"
    },
    {
      "house": "1400",
      "street": "Madison Avenue",
      "city": "New York",
      "state": "New York",
      "zip": "10016"
    },
    {
      "house": "9300",
      "street": "Main Street",
      "city": "New York",
      "state": "New York",
      "zip": "10005"
    },
    {
      "house": "9800",
      "street": "Park Avenue",
      "city": "New York",
      "state": "New York",
      "zip": "10025"
    },
    {
      "house": "9200",
      "street": "5th Avenue",
      "city": "New York",
      "state": "New York",
      "zip": "10005"
    },
    {
      "house": "5800",
      "street": "Broadway",
      "city": "New York",
      "state": "New York",
      "zip": "10005"
    },
    {
      "house": "4500",
      "street": "Broadway",
      "city": "New York",
      "state": "New York",
      "zip": "10003"
    },
    {
      "house": "300",
      "street": "5th Avenue",
      "city": "New York",
      "state": "New York",
      "zip": "10012"
    },
    {
      "house": "8300",
      "street": "Park Avenue",
      "city": "New York",
      "state": "New York",
      "zip": "10004"
    },
    {
      "house": "2",
      "street": "Broadway",
      "city": "New York",
      "state": "New York",
      "zip": "10023"
    },
    {
      "house": "1600",
      "street": "Park Avenue",
      "city": "New York",
      "state": "New York",
      "zip": "10022"
    },
    {
      "house": "7300",
      "street": "Broadway",
      "city": "New York",
      "state": "New York",
      "zip": "10023"
    },
    {
      "house": "3300",
      "street": "5th Avenue",
      "city": "New York",
      "state": "New York",
      "zip": "10004"
    },
    {
      "house": "4000",
      "street": "Broadway",
      "city": "New York",
      "state": "New York",
      "zip": "10017"
    },
    {
      "house": "6400",
      "street": "Main Street",
      "city": "New York",
      "state": "New York",
      "zip": "10016"
    },
    {
      "house": "8500",
      "street": "5th Avenue",
      "city": "New York",
      "state": "New York",
      "zip": "10023"
    },
    {
      "house": "4800",
      "street": "Main Street",
      "city": "New York",
      "state": "New York",
      "zip": "10016"
    },
    {
      "house": "3700",
      "street": "Main Street",
      "city": "New York",
      "state": "New York",
      "zip": "10012"
    },
    {
      "house": "600",
      "street": "5th Avenue",
      "city": "New York",
      "state": "New York",
      "zip": "10001"
    },
    {
      "house": "1200",
      "street": "5th Avenue",
      "city": "New York",
      "state": "New York",
      "zip": "10025"
    },
    {
      "house": "6400",
      "street": "Broadway",
      "city": "New York",
      "state": "New York",
      "zip": "10025"
    },
    {
      "house": "2900",
      "street": "Madison Avenue",
      "city": "New York",
      "state": "New York",
      "zip": "10004"
    },
    {
      "house": "8000",
      "street": "Main Street",
      "city": "New York",
      "state": "New York",
      "zip": "10001"
    },
    {
      "house": "1100",
      "street": "Main Street",
      "city": "New York",
      "state": "New York",
      "zip": "10001"
    },
    {
      "house": "8800",
      "street": "Park Avenue",
      "city": "New York",
      "state": "New York",
      "zip": "10004"
    },
    {
      "house": "6800",
      "street": "5th Avenue",
      "city": "New York",
      "state": "New York",
      "zip": "10023"
    },
    {
      "house": "5900",
      "street": "Main Street",
      "city": "New York",
      "state": "New York",
      "zip": "10003"
    },
    {
      "house": "4400",
      "street": "Madison Avenue",
      "city": "New York",
      "state": "New York",
      "zip": "10002"
    },
    {
      "house": "8100",
      "street": "5th Avenue",
      "city": "New York",
      "state": "New York",
      "zip": "10001"
    },
    {
      "house": "1500",
      "street": "Madison Avenue",
      "city": "New York",
      "state": "New York",
      "zip": "10025"
    },
    {
      "house": "7100",
      "street": "5th Avenue",
      "city": "New York",
      "state": "New York",
      "zip": "10003"
    },
    {
      "house": "4000",
      "street": "Park Avenue",
      "city": "New York",
      "state": "New York",
      "zip": "10004"
    },
    {
      "house": "3600",
      "street": "5th Avenue",
      "city": "New York",
      "state": "New York",
      "zip": "10022"
    },
    {
      "house": "2000",
      "street": "Madison Avenue",
      "city": "New York",
      "state": "New York",
      "zip": "10003"
    },
    {
      "house": "3",
      "street": "Park Avenue",
      "city": "New York",
      "state": "New York",
      "zip": "10001"
    },
    {
      "house": "2800",
      "street": "5th Avenue",
      "city": "New York",
      "state": "New York",
      "zip": "10012"
    },
    {
      "house": "3500",
      "street": "Park Avenue",
      "city": "New York",
      "state": "New York",
      "zip": "10001"
    },
    {
      "house": "5600",
      "street": "Broadway",
      "city": "New York",
      "state": "New York",
      "zip": "10025"
    },
    {
      "house": "300",
      "street": "Main Street",
      "city": "New York",
      "state": "New York",
      "zip": "10001"
    },
    {
      "house": "4200",
      "street": "Broadway",
      "city": "New York",
      "state": "New York",
      "zip": "10023"
    },
    {
      "house": "3000",
      "street": "5th Avenue",
      "city": "New York",
      "state": "New York",
      "zip": "10002"
    },
    {
      "house": "1900",
      "street": "Broadway",
      "city": "New York",
      "state": "New York",
      "zip": "10005"
    },
    {
      "house": "100",
      "street": "Main Street",
      "city": "New York",
      "state": "New York",
      "zip": "10023"
    },
    {
      "house": "2900",
      "street": "Broadway",
      "city": "New York",
      "state": "New York",
      "zip": "10004"
    },
    {
      "house": "1500",
      "street": "Broadway",
      "city": "New York",
      "state": "New York",
      "zip": "10004"
    },
    {
      "house": "7800",
      "street": "5th Avenue",
      "city": "New York",
      "state": "New York",
      "zip": "10012"
    },
    {
      "house": "4400",
      "street": "Broadway",
      "city": "New York",
      "state": "New York",
      "zip": "10012"
    },
    {
      "house": "4400",
      "street": "Main Street",
      "city": "New York",
      "state": "New York",
      "zip": "10017"
    },
    {
      "house": "5800",
      "street": "Park Avenue",
      "city": "New York",
      "state": "New York",
      "zip": "10003"
    },
    {
      "house": "2500",
      "street": "Main Street",
      "city": "New York",
      "state": "New York",
      "zip": "10012"
    },
    {
      "house": "400",
      "street": "Park Avenue",
      "city": "New York",
      "state": "New York",
      "zip": "10001"
    },
    {
      "house": "2000",
      "street": "Park Avenue",
      "city": "New York",
      "state": "New York",
      "zip": "10017"
    },
    {
      "house": "7600",
      "street": "Main Street",
      "city": "New York",
      "state": "New York",
      "zip": "10004"
    },
    {
      "house": "9000",
      "street": "Broadway",
      "city": "New York",
      "state": "New York",
      "zip": "10017"
    },
    {
      "house": "8700",
      "street": "5th Avenue",
      "city": "New York",
      "state": "New York",
      "zip": "10022"
    },
    {
      "house": "7500",
      "street": "5th Avenue",
      "city": "New York",
      "state": "New York",
      "zip": "10005"
    },
    {
      "house": "3800",
      "street": "5th Avenue",
      "city": "New York",
      "state": "New York",
      "zip": "10025"
    },
    {
      "house": "5200",
      "street": "Main Street",
      "city": "New York",
      "state": "New York",
      "zip": "10004"
    },
    {
      "house": "3600",
      "street": "Park Avenue",
      "city": "New York",
      "state": "New York",
      "zip": "10002"
    },
    {
      "house": "1300",
      "street": "5th Avenue",
      "city": "New York",
      "state": "New York",
      "zip": "10005"
    },
    {
      "house": "8700",
      "street": "Park Avenue",
      "city": "New York",
      "state": "New York",
      "zip": "10004"
    },
    {
      "house": "2300",
      "street": "Madison Avenue",
      "city": "New York",
      "state": "New York",
      "zip": "10003"
    },
    {
      "house": "3",
      "street": "Broadway",
      "city": "New York",
      "state": "New York",
      "zip": "10005"
    },
    {
      "house": "8400",
      "street": "Main Street",
      "city": "New York",
      "state": "New York",
      "zip": "10001"
    },
    {
      "house": "9700",
      "street": "Main Street",
      "city": "New York",
      "state": "New York",
      "zip": "10005"
    },
    {
      "house": "4600",
      "street": "Broadway",
      "city": "New York",
      "state": "New York",
      "zip": "10012"
    },
    {
      "house": "2300",
      "street": "Main Street",
      "city": "New York",
      "state": "New York",
      "zip": "10025"
    },
    {
      "house": "200",
      "street": "Main Street",
      "city": "New York",
      "state": "New York",
      "zip": "10002"
    },
    {
      "house": "7900",
      "street": "5th Avenue",
      "city": "New York",
      "state": "New York",
      "zip": "10003"
    },
    {
      "house": "9700",
      "street": "Park Avenue",
      "city": "New York",
      "state": "New York",
      "zip": "10001"
    },
    {
      "house": "3700",
      "street": "Broadway",
      "city": "New York",
      "state": "New York",
      "zip": "10016"
    },
    {
      "house": "4300",
      "street": "Madison Avenue",
      "city": "New York",
      "state": "New York",
      "zip": "10025"
    },
    {
      "house": "2100",
      "street": "Broadway",
      "city": "New York",
      "state": "New York",
      "zip": "10023"
    },
    {
      "house": "10",
      "street": "Park Avenue",
      "city": "New York",
      "state": "New York",
      "zip": "10012"
    },
    {
      "house": "6000",
      "street": "5th Avenue",
      "city": "New York",
      "state": "New York",
      "zip": "10005"
    },
    {
      "house": "5400",
      "street": "Broadway",
      "city": "New York",
      "state": "New York",
      "zip": "10002"
    },
    {
      "house": "3000",
      "street": "Broadway",
      "city": "New York",
      "state": "New York",
      "zip": "10005"
    },
    {
      "house": "7700",
      "street": "5th Avenue",
      "city": "New York",
      "state": "New York",
      "zip": "10022"
    },
    {
      "house": "6200",
      "street": "Park Avenue",
      "city": "New York",
      "state": "New York",
      "zip": "10005"
    },
    {
      "house": "8900",
      "street": "Park Avenue",
      "city": "New York",
      "state": "New York",
      "zip": "10001"
    },
    {
      "house": "5100",
      "street": "5th Avenue",
      "city": "New York",
      "state": "New York",
      "zip": "10017"
    },
    {
      "house": "900",
      "street": "Park Avenue",
      "city": "New York",
      "state": "New York",
      "zip": "10022"
    },
    {
      "house": "600",
      "street": "Madison Avenue",
      "city": "New York",
      "state": "New York",
      "zip": "10012"
    },
    {
      "house": "6000",
      "street": "Park Avenue",
      "city": "New York",
      "state": "New York",
      "zip": "10005"
    },
    {
      "house": "700",
      "street": "Park Avenue",
      "city": "New York",
      "state": "New York",
      "zip": "10023"
    }
  ]
}